GLOBALSTAR M035         
1 25851U 99037A   25091.63850117 -.00000018  00000+0  17355-2 0  9999
2 25851  51.9935 225.6762 0013802 214.1875 158.6536 11.04537621 87804
GLOBALSTAR M032         
1 25852U 99037B   25091.87109741 -.00000040  00000+0  85135-3 0  9993
2 25852  51.9964  55.6147 0011953  38.7065 321.4589 11.19063607126245
GLOBALSTAR M051         
1 25853U 99037C   25091.65615607 -.00000079  00000+0 -16724-3 0  9994
2 25853  51.9780 225.5141 0001426 100.7913 259.3058 11.42205191123643
GLOBALSTAR M030         
1 25854U 99037D   25092.53931894 -.00000034  00000+0  85802-3 0  9995
2 25854  51.9905  34.2964 0003559 277.7991  82.2421 11.55101755141407
GLOBALSTAR M048         
1 25872U 99041A   25091.88670323 -.00000065  00000+0  14875-3 0  9990
2 25872  51.9351 157.0426 0013051  54.7630 115.0827 11.33855712116323
GLOBALSTAR M026         
1 25873U 99041B   25091.93244083 -.00000045  00000+0  68757-3 0  9993
2 25873  52.0053 343.7856 0001938 119.7697 322.8441 11.06833319140047
GLOBALSTAR M043         
1 25874U 99041C   25091.44800978 -.00000071  00000+0 -79416-4 0  9996
2 25874  51.9386 262.6715 0013796 178.3877 203.8988 11.25693105114238
GLOBALSTAR M028         
1 25875U 99041D   25092.22484037 -.00000121  00000+0 -13676-3 0  9999
2 25875  51.9638  59.5682 0062971 266.7040  92.6615 12.50580216180701
